STARLINK-3971           
1 52642U 22052AW  26068.80484880 -.00001080  00000+0 -49779-4 0  9992
2 52642  53.2160 258.6072 0001392  84.1985 275.9166 15.08843045211141
LEMUR-2-AHMED-ASRAR     
1 60576U 24149DN  26068.73265438  .00013045  00000+0  79773-3 0  9992
2 60576  97.7021 152.9847 0001633  18.5035 341.6253 15.10376432 85541
